NORAD_CAT_ID,OBJECT_NAME,OBJECT_TYPE,EPOCH,MEAN_MOTION,ECCENTRICITY,INCLINATION,RA_OF_ASC_NODE,ARG_OF_PERICENTER,MEAN_ANOMALY,BSTAR,MEAN_MOTION_DOT,MEAN_MOTION_DDOT,TLE_LINE0,TLE_LINE1,TLE_LINE2,SEMIMAJOR_AXIS,PERIOD,APOGEE,PERIGEE,DECAYED
54008.0,STARLINK-5145,PAYLOAD,2023-02-23 11:27:11,15.08838949,9.97e-05,53.2189,147.6981,93.9406,266.17,-0.00012677,-2.305e-05,0.0,0 STARLINK-5145,1 54008U 22125AW  23054.47722109 -.00002305  00000-0 -12677-3 0  9993,2 54008  53.2189 147.6981 0000997  93.9406 266.1700 15.08838949 22000,6917.884,95.438,540.438,539.059,0.0
54008.0,STARLINK-5145,PAYLOAD,2023-02-23 16:13:21,15.08834152,0.0001197,53.2186,146.8029,113.2651,246.8467,-3.1203e-05,-7.84e-06,0.0,0 STARLINK-5145,1 54008U 22125AW  23054.67593963 -.00000784  00000-0 -31203-4 0  9995,2 54008  53.2186 146.8029 0001197 113.2651 246.8467 15.08834152 22087,6917.898,95.438,540.591,538.935,0.0
54008.0,STARLINK-5145,PAYLOAD,2023-02-24 09:42:35,15.08839935,0.0001001,53.2167,143.5341,110.4948,249.6152,2.8846e-05,1.71e-06,0.0,0 STARLINK-5145,1 54008U 22125AW  23055.40457581  .00000171  00000-0  28846-4 0  9999,2 54008  53.2167 143.5341 0001001 110.4948 249.6152 15.08839935 22197,6917.881,95.438,540.438,539.053,0.0
54008.0,STARLINK-5145,PAYLOAD,2023-02-24 11:17:58,15.08842214,0.0001055,53.217,143.2367,110.8831,249.2274,3.4316e-05,2.58e-06,0.0,0 STARLINK-5145,1 54008U 22125AW  23055.47081332  .00000258  00000-0  34316-4 0  9998,2 54008  53.2170 143.2367 0001055 110.8831 249.2274 15.08842214 22151,6917.874,95.437,540.468,539.009,0.0
54008.0,STARLINK-5145,PAYLOAD,2023-02-24 16:04:07,15.08848284,0.0001206,53.2174,142.3439,117.3268,242.7847,8.5104e-05,1.067e-05,0.0,0 STARLINK-5145,1 54008U 22125AW  23055.66952764  .00001067  00000-0  85104-4 0  9995,2 54008  53.2174 142.3439 0001206 117.3268 242.7847 15.08848284 22235,6917.855,95.437,540.554,538.886,0.0
54008.0,STARLINK-5145,PAYLOAD,2023-02-24 22:25:40,15.08840052,0.0001165,53.2183,141.1505,69.8228,290.2889,5.1111e-05,5.26e-06,0.0,0 STARLINK-5145,1 54008U 22125AW  23055.93449455  .00000526  00000-0  51111-4 0  9993,2 54008  53.2183 141.1505 0001165  69.8228 290.2889 15.08840052 22270,6917.88,95.438,540.551,538.939,0.0
54008.0,STARLINK-5145,PAYLOAD,2023-02-25 09:33:24,15.08822102,0.0001447,53.221,139.0774,101.1762,258.9393,-8.129e-05,-1.581e-05,0.0,0 STARLINK-5145,1 54008U 22125AW  23056.39819621 -.00001581  00000-0 -81290-4 0  9995,2 54008  53.2210 139.0774 0001447 101.1762 258.9393 15.08822102 22346,6917.935,95.439,540.801,538.799,0.0
54008.0,STARLINK-5145,PAYLOAD,2023-02-25 12:44:10,15.08824854,0.0001124,53.2178,138.4795,91.5463,268.5657,-7.2366e-05,-1.439e-05,0.0,0 STARLINK-5145,1 54008U 22125AW  23056.53067474 -.00001439  00000-0 -72366-4 0  9998,2 54008  53.2178 138.4795 0001124  91.5463 268.5657 15.08824854 22310,6917.927,95.439,540.569,539.014,0.0
54008.0,STARLINK-5145,PAYLOAD,2023-02-25 15:54:56,15.08830655,0.0001122,53.2173,137.8847,87.6767,272.4354,-2.3326e-05,-6.59e-06,0.0,0 STARLINK-5145,1 54008U 22125AW  23056.66315027 -.00000659  00000-0 -23326-4 0  9997,2 54008  53.2173 137.8847 0001122  87.6767 272.4354 15.08830655 22388,6917.909,95.438,540.55,538.998,0.0
54008.0,STARLINK-5145,PAYLOAD,2023-02-26 09:24:09,15.0885374,0.0001561,53.2189,134.6186,87.2513,272.8657,-5.362e-05,-1.142e-05,0.0,0 STARLINK-5145,1 54008U 22125AW  23057.39178001 -.00001142  00000-0 -53620-4 0  9995,2 54008  53.2189 134.6186 0001561  87.2513 272.8657 15.08853740 22490,6917.838,95.437,540.783,538.624,0.0
54008.0,STARLINK-5145,PAYLOAD,2023-02-26 14:10:18,15.0885833,0.0001086,53.2174,133.7203,106.7792,253.332,8.8831e-05,1.127e-05,0.0,0 STARLINK-5145,1 54008U 22125AW  23057.59048917  .00001127  00000-0  88831-4 0  9992,2 54008  53.2174 133.7203 0001086 106.7792 253.3320 15.08858330 22471,6917.824,95.436,540.441,538.938,0.0
54008.0,STARLINK-5145,PAYLOAD,2023-02-26 22:07:15,15.08836755,0.0001163,53.2194,132.2308,87.2449,272.8676,-5.6235e-05,-1.183e-05,0.0,0 STARLINK-5145,1 54008U 22125AW  23057.92170656 -.00001183  00000-0 -56235-4 0  9992,2 54008  53.2194 132.2308 0001163  87.2449 272.8676 15.08836755 22579,6917.89,95.438,540.56,538.951,0.0
54008.0,STARLINK-5145,PAYLOAD,2023-02-27 09:14:57,15.08822818,0.0001129,53.2176,130.1542,93.2602,266.852,8.3721e-05,1.044e-05,0.0,0 STARLINK-5145,1 54008U 22125AW  23058.38539316  .00001044  00000-0  83721-4 0  9999,2 54008  53.2176 130.1542 0001129  93.2602 266.8520 15.08822818 22640,6917.933,95.439,540.579,539.017,0.0
54008.0,STARLINK-5145,PAYLOAD,2023-02-27 14:01:05,15.08847727,0.0001052,53.218,129.2619,98.7161,261.395,0.0001751,2.501e-05,0.0,0 STARLINK-5145,1 54008U 22125AW  23058.58409499  .00002501  00000-0  17510-3 0  9990,2 54008  53.2180 129.2619 0001052  98.7161 261.3950 15.08847727 22670,6917.857,95.437,540.45,538.994,0.0
54008.0,STARLINK-5145,PAYLOAD,2023-02-28 10:41:08,15.08838371,0.0001388,53.2173,125.3983,72.8571,287.2573,-0.0001085,-2.014e-05,0.0,0 STARLINK-5145,1 54008U 22125AW  23059.44523534 -.00002014  00000-0 -10850-3 0  9994,2 54008  53.2173 125.3983 0001388  72.8571 287.2573 15.08838371 22801,6917.885,95.438,540.711,538.79,0.0
54008.0,STARLINK-5145,PAYLOAD,2023-02-28 13:51:53,15.08851061,0.0001,53.2181,124.7987,101.3202,258.7903,-6.3657e-05,-1.301e-05,0.0,0 STARLINK-5145,1 54008U 22125AW  23059.57770375 -.00001301  00000-0 -63657-4 0  9997,2 54008  53.2181 124.7987 0001000 101.3202 258.7903 15.08851061 22820,6917.847,95.437,540.403,539.02,0.0
54008.0,STARLINK-5145,PAYLOAD,2023-02-28 21:48:50,15.08834246,0.0001351,53.218,123.3151,69.7525,290.3612,-0.00022634,-3.888e-05,0.0,0 STARLINK-5145,1 54008U 22125AW  23059.90892160 -.00003888  00000-0 -22634-3 0  9992,2 54008  53.2180 123.3151 0001351  69.7525 290.3612 15.08834246 22826,6917.898,95.438,540.698,538.828,0.0
54008.0,STARLINK-5145,PAYLOAD,2023-03-01 10:31:56,15.08828557,0.0001308,53.2177,120.9372,85.8028,274.3114,-0.00019521,-3.392e-05,0.0,0 STARLINK-5145,1 54008U 22125AW  23060.43885199 -.00003392  00000-0 -19521-3 0  9997,2 54008  53.2177 120.9372 0001308  85.8028 274.3114 15.08828557 22950,6917.915,95.438,540.685,538.876,0.0
54008.0,STARLINK-5145,PAYLOAD,2023-03-01 13:42:42,15.08833575,0.0001379,53.2184,120.3425,87.0096,273.1054,-0.00014019,-2.518e-05,0.0,0 STARLINK-5145,1 54008U 22125AW  23060.57132756 -.00002518  00000-0 -14019-3 0  9992,2 54008  53.2184 120.3425 0001379  87.0096 273.1054 15.08833575 22976,6917.9,95.438,540.719,538.811,0.0
54008.0,STARLINK-5145,PAYLOAD,2023-03-02 04:01:09,15.08834146,0.0001047,53.2198,117.6643,86.2739,273.8373,0.00023669,3.481e-05,0.0,0 STARLINK-5145,1 54008U 22125AW  23061.16747403  .00003481  00000-0  23669-3 0  9998,2 54008  53.2198 117.6643 0001047  86.2739 273.8373 15.08834146 23066,6917.898,95.438,540.488,539.039,0.0
54008.0,STARLINK-5145,PAYLOAD,2023-03-02 13:33:27,15.08862588,0.0001413,53.2189,115.8807,79.5364,280.5788,0.00022533,3.302e-05,0.0,0 STARLINK-5145,1 54008U 22125AW  23061.56489618  .00003302  00000-0  22533-3 0  9994,2 54008  53.2189 115.8807 0001413  79.5364 280.5788 15.08862588 23127,6917.811,95.436,540.654,538.699,0.0
54008.0,STARLINK-5145,PAYLOAD,2023-03-03 07:02:43,15.0883539,0.0001681,53.2179,112.6106,73.1293,286.9883,0.00014108,1.958e-05,0.0,0 STARLINK-5145,1 54008U 22125AW  23062.29355595  .00001958  00000-0  14108-3 0  9995,2 54008  53.2179 112.6106 0001681  73.1293 286.9883 15.08835390 23230,6917.894,95.438,540.922,538.597,0.0
54008.0,STARLINK-5145,PAYLOAD,2023-03-03 08:38:06,15.08837988,0.0001762,53.2183,112.3139,71.5446,288.5737,0.00015766,2.222e-05,0.0,0 STARLINK-5145,1 54008U 22125AW  23062.35979362  .00002222  00000-0  15766-3 0  9992,2 54008  53.2183 112.3139 0001762  71.5446 288.5737 15.08837988 23196,6917.887,95.438,540.97,538.533,0.0
54008.0,STARLINK-5145,PAYLOAD,2023-03-03 13:24:14,15.08859091,0.0001325,53.2181,111.4189,82.8329,277.2814,0.00024126,3.556e-05,0.0,0 STARLINK-5145,1 54008U 22125AW  23062.55849548  .00003556  00000-0  24126-3 0  9997,2 54008  53.2181 111.4189 0001325  82.8329 277.2814 15.08859091 23278,6917.822,95.436,540.604,538.77,0.0
54008.0,STARLINK-5145,PAYLOAD,2023-03-03 19:45:48,15.08835129,0.0001223,53.2186,110.2276,85.1269,274.9863,-8.1791e-05,-1.589e-05,0.0,0 STARLINK-5145,1 54008U 22125AW  23062.82347859 -.00001589  00000-0 -81791-4 0  9993,2 54008  53.2186 110.2276 0001223  85.1269 274.9863 15.08835129 23266,6917.895,95.438,540.606,538.914,0.0
54008.0,STARLINK-5145,PAYLOAD,2023-03-04 08:28:53,15.08847052,0.0001517,53.2181,107.8518,87.9393,272.1773,-0.00016497,-2.913e-05,0.0,0 STARLINK-5145,1 54008U 22125AW  23063.35339505 -.00002913  00000-0 -16497-3 0  9993,2 54008  53.2181 107.8518 0001517  87.9393 272.1773 15.08847052 23398,6917.859,95.437,540.773,538.674,0.0
54008.0,STARLINK-5145,PAYLOAD,2023-03-04 11:39:38,15.08857006,0.0001331,53.2181,107.2569,91.3452,268.7693,-7.8238e-05,-1.533e-05,0.0,0 STARLINK-5145,1 54008U 22125AW  23063.48586416 -.00001533  00000-0 -78238-4 0  9991,2 54008  53.2181 107.2569 0001331  91.3452 268.7693 15.08857006 23366,6917.828,95.436,540.614,538.773,0.0
54008.0,STARLINK-5145,PAYLOAD,2023-03-04 19:36:35,15.08844833,0.0001386,53.2183,105.7687,78.6713,281.4435,-0.00024403,-4.17e-05,0.0,0 STARLINK-5145,1 54008U 22125AW  23063.81707498 -.00004170  00000-0 -24403-3 0  9997,2 54008  53.2183 105.7687 0001386  78.6713 281.4435 15.08844833 23416,6917.866,95.437,540.689,538.772,0.0
54008.0,STARLINK-5145,PAYLOAD,2023-03-05 11:30:26,15.08842735,0.0001749,53.219,102.7967,99.7668,260.3522,-0.00010596,-1.974e-05,0.0,0 STARLINK-5145,1 54008U 22125AW  23064.47947582 -.00001974  00000-0 -10596-3 0  9997,2 54008  53.2190 102.7967 0001749  99.7668 260.3522 15.08842735 23566,6917.872,95.437,540.947,538.527,0.0
54008.0,STARLINK-5145,PAYLOAD,2023-03-06 11:21:11,15.08858847,0.0001155,53.2178,98.3354,112.3119,247.7995,0.00011554,1.552e-05,0.0,0 STARLINK-5145,1 54008U 22125AW  23065.47305548  .00001552  00000-0  11554-3 0  9993,2 54008  53.2178  98.3354 0001155 112.3119 247.7995 15.08858847 23717,6917.823,95.436,540.487,538.889,0.0
